STARLINK-32240          
1 60438U 24144P   26068.70745417  .00000436  00000+0  26835-4 0  9993
2 60438  53.1587 216.9240 0000907  72.2280 287.8820 15.30185970 89352
TEVEL2-6                
1 63215U 25052F   26068.64958975  .00021046  00000+0  70909-3 0  9996
2 63215  97.4016 325.0381 0004769  95.6604 264.5181 15.30760889 54861
